{
    "links": {
        "self": "http://www.neowsapp.com/rest/v1/neo/3591893?api_key=iIulBulltgU6a56xZRHN4H3l9WmuAYTsLGpBGhQ2"
    },
    "id": "3591893",
    "neo_reference_id": "3591893",
    "name": "(2011 YC63)",
    "designation": "2011 YC63",
    "nasa_jpl_url": "http://ssd.jpl.nasa.gov/sbdb.cgi?sstr=3591893",
    "absolute_magnitude_h": 29.0,
    "estimated_diameter": {
        "kilometers": {
            "estimated_diameter_min": 0.0042126461,
            "estimated_diameter_max": 0.0094197631
        },
        "meters": {
            "estimated_diameter_min": 4.2126461056,
            "estimated_diameter_max": 9.4197630572
        },
        "miles": {
            "estimated_diameter_min": 0.0026176161,
            "estimated_diameter_max": 0.0058531676
        },
        "feet": {
            "estimated_diameter_min": 13.821017849,
            "estimated_diameter_max": 30.9047354285
        }
    },
    "is_potentially_hazardous_asteroid": false,
    "close_approach_data": [
        {
            "close_approach_date": "2010-01-19",
            "close_approach_date_full": "2010-Jan-19 14:11",
            "epoch_date_close_approach": 1263910260000,
            "relative_velocity": {
                "kilometers_per_second": "31.6160590938",
                "kilometers_per_hour": "113817.8127375112",
                "miles_per_hour": "70721.9625868163"
            },
            "miss_distance": {
                "astronomical": "0.4310312334",
                "lunar": "167.6711497926",
                "kilometers": "64481354.420112858",
                "miles": "40066855.7118711204"
            },
            "orbiting_body": "Earth"
        },
        {
            "close_approach_date": "2011-12-30",
            "close_approach_date_full": "2011-Dec-30 00:04",
            "epoch_date_close_approach": 1325203440000,
            "relative_velocity": {
                "kilometers_per_second": "17.9430739068",
                "kilometers_per_hour": "64595.0660644296",
                "miles_per_hour": "40136.8620220896"
            },
            "miss_distance": {
                "astronomical": "0.0038811065",
                "lunar": "1.5097504285",
                "kilometers": "580605.265643155",
                "miles": "360771.382879339"
            },
            "orbiting_body": "Moon"
        },
        {
            "close_approach_date": "2011-12-30",
            "close_approach_date_full": "2011-Dec-30 02:16",
            "epoch_date_close_approach": 1325211360000,
            "relative_velocity": {
                "kilometers_per_second": "18.8025147495",
                "kilometers_per_hour": "67689.0530982605",
                "miles_per_hour": "42059.3452431941"
            },
            "miss_distance": {
                "astronomical": "0.001610441",
                "lunar": "0.626461549",
                "kilometers": "240918.54336067",
                "miles": "149699.841170446"
            },
            "orbiting_body": "Earth"
        }
    ],
    "orbital_data": {
        "orbit_id": "4",
        "orbit_determination_date": "2017-04-06 08:51:34",
        "first_observation_date": "2011-12-31",
        "last_observation_date": "2012-01-01",
        "data_arc_in_days": 1,
        "observations_used": 14,
        "orbit_uncertainty": "8",
        "minimum_orbit_intersection": ".00124086",
        "jupiter_tisserand_invariant": "4.251",
        "epoch_osculation": "2455927.5",
        "eccentricity": ".596500843282324",
        "semi_major_axis": "1.532961795852807",
        "inclination": "10.41061442483953",
        "ascending_node_longitude": "98.29105429484549",
        "orbital_period": "693.2588529732244",
        "perihelion_distance": ".6185487919070219",
        "perihelion_argument": "269.9756378086295",
        "aphelion_distance": "2.447374799798593",
        "perihelion_time": "2455875.984104701109",
        "mean_anomaly": "26.75151168724714",
        "mean_motion": ".5192865528597933",
        "equinox": "J2000",
        "orbit_class": {
            "orbit_class_type": "APO",
            "orbit_class_description": "Near-Earth asteroid orbits which cross the Earth’s orbit similar to that of 1862 Apollo",
            "orbit_class_range": "a (semi-major axis) > 1.0 AU; q (perihelion) < 1.017 AU"
        }
    },
    "is_sentry_object": false
}